XRISM                   
1 57800U 23137A   23265.38690080  .00004582  00000+0  37282-3 0  9991
2 57800  31.0057 279.1756 0009855  70.4045  31.6899 14.97941888  2302
